SL-16 R/B               
1 19120U 88039B   26065.38670962 -.00000130  00000+0 -38618-4 0  9996
2 19120  71.0131  75.5323 0022584 339.1784  20.8419 14.19615621957910
COSMOS 1953             
1 19210U 88050A   26065.35232761  .00010187  00000+0  36586-3 0  9999
2 19210  82.5105 161.6021 0012387 133.2104 227.0173 15.28452731 37277
SL-8 R/B                
1 19257U 88053B   26065.54395405  .00000351  00000+0  12216-3 0  9995
2 19257  74.0465 118.2653 0021375 298.0011 206.3496 14.38913669976144
COSMOS 1975             
1 19573U 88093A   26065.18860123  .00008295  00000+0  30187-3 0  9996
2 19573  82.5188 121.2001 0011867 175.1443 184.9914 15.28008132 18874
SL-14 R/B               
1 19574U 88093B   26065.38074258  .00000827  00000+0  92238-4 0  9994
2 19574  82.5299  45.1501 0021964  51.8689 109.4415 14.85651838   528
SL-16 R/B               
1 19650U 88102B   26065.37318087  .00000182  00000+0  11628-3 0  9997
2 19650  71.0000 158.4751 0013733   6.7400 353.3905 14.16150141926421
INTERCOSMOS 24          
1 20261U 89080A   26065.14880779  .00000827  00000+0  24601-3 0  9991
2 20261  82.6030 106.7103 1186760 301.0471  47.9344 12.59551016666357
SL-14 R/B               
1 20262U 89080C   26065.35502846  .00000887  00000+0  26385-3 0  9998
2 20262  82.5973 175.3263 1230446 192.3694 164.4455 12.50488976659738
DELTA 1 R/B             
1 20323U 89089B   26065.30998048  .00000481  00000+0  12720-3 0  9991
2 20323  97.0707 273.2862 0070262 132.5106 228.2056 14.50659968895243
ARIANE 40 R/B           
1 20443U 90005H   26065.40846406  .00000373  00000+0  13222-3 0  9993
2 20443  98.3090 126.1676 0009641 208.5951 151.4710 14.39867975892336
DELTA 2 R/B(1)          
1 20453U 90008B   26065.42270898  .00071040  00000+0  84423-3 0  9995
2 20453  35.6042 196.2874 0086164 228.5737 130.7570 15.55480561925629
